0 GALS 2
1 23717U 95063A   13283.16079621 -.00000276  00000-0  10000-3 0  6359
2 23717 011.2502 044.1599 0003612 173.5844 186.4237 00.99893500 65408
0 GALS 2
1 23717U 95063A   13289.16693224 -.00000299  00000-0  10000-3 0  6373
2 23717 011.2614 044.0888 0004688 194.9262 165.0465 00.99891636 65467
0 GALS 2
1 23717U 95063A   13292.16999918 -.00000300  00000-0  10000-3 0  6380
2 23717 011.2670 044.0530 0005166 197.8893 162.0562 00.99890608 65493
0 GALS 2
1 23717U 95063A   13294.17208409 -.00000298  00000-0  10000-3 0  6398
2 23717 011.2715 044.0285 0005282 200.2829 159.6536 00.99889888 65511
